IRIDIUM 166             
1 43570U 18061B   24061.44488915  .00000102  00000+0  29524-4 0  9999
2 43570  86.3948  46.8243 0002329  97.0019 263.1442 14.34218389293322
IRIDIUM 158             
1 43571U 18061C   24061.41317245  .00000201  00000+0  64767-4 0  9992
2 43571  86.3949  46.8466 0002467  89.6427 270.5052 14.34219891293287
IRIDIUM 165             
1 43572U 18061D   24061.50831388  .00000169  00000+0  53216-4 0  9992
2 43572  86.3950  46.8373 0002518  89.8090 270.3394 14.34219234293325
IRIDIUM 155             
1 43573U 18061E   24061.47025745 -.00000036  00000+0 -20007-4 0  9998
2 43573  86.3944  46.7641 0001975  91.8459 268.2963 14.34218908293284
IRIDIUM 154             
1 43574U 18061F   24061.45124008  .00000305  00000+0  10193-3 0  9990
2 43574  86.3950  46.8639 0002223  83.2618 276.8830 14.34214654293337
IRIDIUM 163             
1 43575U 18061G   24061.50197028  .00000159  00000+0  49743-4 0  9990
2 43575  86.3948  46.7845 0002169  85.4982 274.6461 14.34219159293319
IRIDIUM 156             
1 43576U 18061H   24061.47660088  .00000337  00000+0  11325-3 0  9990
2 43576  86.3944  46.8014 0002227  91.3158 268.8293 14.34219040293307
IRIDIUM 164             
1 43577U 18061J   24061.45757409  .00000174  00000+0  55196-4 0  9997
2 43577  86.3950  46.8364 0002474  87.2210 272.9269 14.34218995293341
