<?xml version="1.0" encoding="UTF-8"?>
<ndm xmlns:xsi="http://www.w3.org/2001/XMLSchema-instance" xsi:noNamespaceSchemaLocation="https://sanaregistry.org/r/ndmxml_unqualified/ndmxml-2.0.0-master-2.0.xsd">
<omm id="CCSDS_OMM_VERS" version="2.0">
<header><CREATION_DATE/><ORIGINATOR/></header><body><segment><metadata><OBJECT_NAME>IRIDIUM 166</OBJECT_NAME><OBJECT_ID>2018-061B</OBJECT_ID><CENTER_NAME>EARTH</CENTER_NAME><REF_FRAME>TEME</REF_FRAME><TIME_SYSTEM>UTC</TIME_SYSTEM><MEAN_ELEMENT_THEORY>SGP4</MEAN_ELEMENT_THEORY></metadata><data><meanElements><EPOCH>2024-03-01T10:40:38.422560</EPOCH><MEAN_MOTION>14.34218389</MEAN_MOTION><ECCENTRICITY>.0002329</ECCENTRICITY><INCLINATION>86.3948</INCLINATION><RA_OF_ASC_NODE>46.8243</RA_OF_ASC_NODE><ARG_OF_PERICENTER>97.0019</ARG_OF_PERICENTER><MEAN_ANOMALY>263.1442</MEAN_ANOMALY></meanElements><tleParameters><EPHEMERIS_TYPE>0</EPHEMERIS_TYPE><CLASSIFICATION_TYPE>U</CLASSIFICATION_TYPE><NORAD_CAT_ID>43570</NORAD_CAT_ID><ELEMENT_SET_NO>999</ELEMENT_SET_NO><REV_AT_EPOCH>29332</REV_AT_EPOCH><BSTAR>.29524E-4</BSTAR><MEAN_MOTION_DOT>.102E-5</MEAN_MOTION_DOT><MEAN_MOTION_DDOT>0</MEAN_MOTION_DDOT></tleParameters></data></segment></body></omm>
<omm id="CCSDS_OMM_VERS" version="2.0">
<header><CREATION_DATE/><ORIGINATOR/></header><body><segment><metadata><OBJECT_NAME>IRIDIUM 158</OBJECT_NAME><OBJECT_ID>2018-061C</OBJECT_ID><CENTER_NAME>EARTH</CENTER_NAME><REF_FRAME>TEME</REF_FRAME><TIME_SYSTEM>UTC</TIME_SYSTEM><MEAN_ELEMENT_THEORY>SGP4</MEAN_ELEMENT_THEORY></metadata><data><meanElements><EPOCH>2024-03-01T09:54:58.099680</EPOCH><MEAN_MOTION>14.34219891</MEAN_MOTION><ECCENTRICITY>.0002467</ECCENTRICITY><INCLINATION>86.3949</INCLINATION><RA_OF_ASC_NODE>46.8466</RA_OF_ASC_NODE><ARG_OF_PERICENTER>89.6427</ARG_OF_PERICENTER><MEAN_ANOMALY>270.5052</MEAN_ANOMALY></meanElements><tleParameters><EPHEMERIS_TYPE>0</EPHEMERIS_TYPE><CLASSIFICATION_TYPE>U</CLASSIFICATION_TYPE><NORAD_CAT_ID>43571</NORAD_CAT_ID><ELEMENT_SET_NO>999</ELEMENT_SET_NO><REV_AT_EPOCH>29328</REV_AT_EPOCH><BSTAR>.64767E-4</BSTAR><MEAN_MOTION_DOT>.201E-5</MEAN_MOTION_DOT><MEAN_MOTION_DDOT>0</MEAN_MOTION_DDOT></tleParameters></data></segment></body></omm>
<omm id="CCSDS_OMM_VERS" version="2.0">
<header><CREATION_DATE/><ORIGINATOR/></header><body><segment><metadata><OBJECT_NAME>IRIDIUM 165</OBJECT_NAME><OBJECT_ID>2018-061D</OBJECT_ID><CENTER_NAME>EARTH</CENTER_NAME><REF_FRAME>TEME</REF_FRAME><TIME_SYSTEM>UTC</TIME_SYSTEM><MEAN_ELEMENT_THEORY>SGP4</MEAN_ELEMENT_THEORY></metadata><data><meanElements><EPOCH>2024-03-01T12:11:58.319232</EPOCH><MEAN_MOTION>14.34219234</MEAN_MOTION><ECCENTRICITY>.0002518</ECCENTRICITY><INCLINATION>86.3950</INCLINATION><RA_OF_ASC_NODE>46.8373</RA_OF_ASC_NODE><ARG_OF_PERICENTER>89.8090</ARG_OF_PERICENTER><MEAN_ANOMALY>270.3394</MEAN_ANOMALY></meanElements><tleParameters><EPHEMERIS_TYPE>0</EPHEMERIS_TYPE><CLASSIFICATION_TYPE>U</CLASSIFICATION_TYPE><NORAD_CAT_ID>43572</NORAD_CAT_ID><ELEMENT_SET_NO>999</ELEMENT_SET_NO><REV_AT_EPOCH>29332</REV_AT_EPOCH><BSTAR>.53216E-4</BSTAR><MEAN_MOTION_DOT>.169E-5</MEAN_MOTION_DOT><MEAN_MOTION_DDOT>0</MEAN_MOTION_DDOT></tleParameters></data></segment></body></omm>
<omm id="CCSDS_OMM_VERS" version="2.0">
<header><CREATION_DATE/><ORIGINATOR/></header><body><segment><metadata><OBJECT_NAME>IRIDIUM 155</OBJECT_NAME><OBJECT_ID>2018-061E</OBJECT_ID><CENTER_NAME>EARTH</CENTER_NAME><REF_FRAME>TEME</REF_FRAME><TIME_SYSTEM>UTC</TIME_SYSTEM><MEAN_ELEMENT_THEORY>SGP4</MEAN_ELEMENT_THEORY></metadata><data><meanElements><EPOCH>2024-03-01T11:17:10.243680</EPOCH><MEAN_MOTION>14.34218908</MEAN_MOTION><ECCENTRICITY>.0001975</ECCENTRICITY><INCLINATION>86.3944</INCLINATION><RA_OF_ASC_NODE>46.7641</RA_OF_ASC_NODE><ARG_OF_PERICENTER>91.8459</ARG_OF_PERICENTER><MEAN_ANOMALY>268.2963</MEAN_ANOMALY></meanElements><tleParameters><EPHEMERIS_TYPE>0</EPHEMERIS_TYPE><CLASSIFICATION_TYPE>U</CLASSIFICATION_TYPE><NORAD_CAT_ID>43573</NORAD_CAT_ID><ELEMENT_SET_NO>999</ELEMENT_SET_NO><REV_AT_EPOCH>29328</REV_AT_EPOCH><BSTAR>-.20007E-4</BSTAR><MEAN_MOTION_DOT>-.36E-6</MEAN_MOTION_DOT><MEAN_MOTION_DDOT>0</MEAN_MOTION_DDOT></tleParameters></data></segment></body></omm>
<omm id="CCSDS_OMM_VERS" version="2.0">
<header><CREATION_DATE/><ORIGINATOR/></header><body><segment><metadata><OBJECT_NAME>IRIDIUM 154</OBJECT_NAME><OBJECT_ID>2018-061F</OBJECT_ID><CENTER_NAME>EARTH</CENTER_NAME><REF_FRAME>TEME</REF_FRAME><TIME_SYSTEM>UTC</TIME_SYSTEM><MEAN_ELEMENT_THEORY>SGP4</MEAN_ELEMENT_THEORY></metadata><data><meanElements><EPOCH>2024-03-01T10:49:47.142912</EPOCH><MEAN_MOTION>14.34214654</MEAN_MOTION><ECCENTRICITY>.0002223</ECCENTRICITY><INCLINATION>86.3950</INCLINATION><RA_OF_ASC_NODE>46.8639</RA_OF_ASC_NODE><ARG_OF_PERICENTER>83.2618</ARG_OF_PERICENTER><MEAN_ANOMALY>276.8830</MEAN_ANOMALY></meanElements><tleParameters><EPHEMERIS_TYPE>0</EPHEMERIS_TYPE><CLASSIFICATION_TYPE>U</CLASSIFICATION_TYPE><NORAD_CAT_ID>43574</NORAD_CAT_ID><ELEMENT_SET_NO>999</ELEMENT_SET_NO><REV_AT_EPOCH>29333</REV_AT_EPOCH><BSTAR>.10193E-3</BSTAR><MEAN_MOTION_DOT>.305E-5</MEAN_MOTION_DOT><MEAN_MOTION_DDOT>0</MEAN_MOTION_DDOT></tleParameters></data></segment></body></omm>
<omm id="CCSDS_OMM_VERS" version="2.0">
<header><CREATION_DATE/><ORIGINATOR/></header><body><segment><metadata><OBJECT_NAME>IRIDIUM 163</OBJECT_NAME><OBJECT_ID>2018-061G</OBJECT_ID><CENTER_NAME>EARTH</CENTER_NAME><REF_FRAME>TEME</REF_FRAME><TIME_SYSTEM>UTC</TIME_SYSTEM><MEAN_ELEMENT_THEORY>SGP4</MEAN_ELEMENT_THEORY></metadata><data><meanElements><EPOCH>2024-03-01T12:02:50.232192</EPOCH><MEAN_MOTION>14.34219159</MEAN_MOTION><ECCENTRICITY>.0002169</ECCENTRICITY><INCLINATION>86.3948</INCLINATION><RA_OF_ASC_NODE>46.7845</RA_OF_ASC_NODE><ARG_OF_PERICENTER>85.4982</ARG_OF_PERICENTER><MEAN_ANOMALY>274.6461</MEAN_ANOMALY></meanElements><tleParameters><EPHEMERIS_TYPE>0</EPHEMERIS_TYPE><CLASSIFICATION_TYPE>U</CLASSIFICATION_TYPE><NORAD_CAT_ID>43575</NORAD_CAT_ID><ELEMENT_SET_NO>999</ELEMENT_SET_NO><REV_AT_EPOCH>29331</REV_AT_EPOCH><BSTAR>.49743E-4</BSTAR><MEAN_MOTION_DOT>.159E-5</MEAN_MOTION_DOT><MEAN_MOTION_DDOT>0</MEAN_MOTION_DDOT></tleParameters></data></segment></body></omm>
<omm id="CCSDS_OMM_VERS" version="2.0">
<header><CREATION_DATE/><ORIGINATOR/></header><body><segment><metadata><OBJECT_NAME>IRIDIUM 156</OBJECT_NAME><OBJECT_ID>2018-061H</OBJECT_ID><CENTER_NAME>EARTH</CENTER_NAME><REF_FRAME>TEME</REF_FRAME><TIME_SYSTEM>UTC</TIME_SYSTEM><MEAN_ELEMENT_THEORY>SGP4</MEAN_ELEMENT_THEORY></metadata><data><meanElements><EPOCH>2024-03-01T11:26:18.316032</EPOCH><MEAN_MOTION>14.34219040</MEAN_MOTION><ECCENTRICITY>.0002227</ECCENTRICITY><INCLINATION>86.3944</INCLINATION><RA_OF_ASC_NODE>46.8014</RA_OF_ASC_NODE><ARG_OF_PERICENTER>91.3158</ARG_OF_PERICENTER><MEAN_ANOMALY>268.8293</MEAN_ANOMALY></meanElements><tleParameters><EPHEMERIS_TYPE>0</EPHEMERIS_TYPE><CLASSIFICATION_TYPE>U</CLASSIFICATION_TYPE><NORAD_CAT_ID>43576</NORAD_CAT_ID><ELEMENT_SET_NO>999</ELEMENT_SET_NO><REV_AT_EPOCH>29330</REV_AT_EPOCH><BSTAR>.11325E-3</BSTAR><MEAN_MOTION_DOT>.337E-5</MEAN_MOTION_DOT><MEAN_MOTION_DDOT>0</MEAN_MOTION_DDOT></tleParameters></data></segment></body></omm>
<omm id="CCSDS_OMM_VERS" version="2.0">
<header><CREATION_DATE/><ORIGINATOR/></header><body><segment><metadata><OBJECT_NAME>IRIDIUM 164</OBJECT_NAME><OBJECT_ID>2018-061J</OBJECT_ID><CENTER_NAME>EARTH</CENTER_NAME><REF_FRAME>TEME</REF_FRAME><TIME_SYSTEM>UTC</TIME_SYSTEM><MEAN_ELEMENT_THEORY>SGP4</MEAN_ELEMENT_THEORY></metadata><data><meanElements><EPOCH>2024-03-01T10:58:54.401376</EPOCH><MEAN_MOTION>14.34218995</MEAN_MOTION><ECCENTRICITY>.0002474</ECCENTRICITY><INCLINATION>86.3950</INCLINATION><RA_OF_ASC_NODE>46.8364</RA_OF_ASC_NODE><ARG_OF_PERICENTER>87.2210</ARG_OF_PERICENTER><MEAN_ANOMALY>272.9269</MEAN_ANOMALY></meanElements><tleParameters><EPHEMERIS_TYPE>0</EPHEMERIS_TYPE><CLASSIFICATION_TYPE>U</CLASSIFICATION_TYPE><NORAD_CAT_ID>43577</NORAD_CAT_ID><ELEMENT_SET_NO>999</ELEMENT_SET_NO><REV_AT_EPOCH>29334</REV_AT_EPOCH><BSTAR>.55196E-4</BSTAR><MEAN_MOTION_DOT>.174E-5</MEAN_MOTION_DOT><MEAN_MOTION_DDOT>0</MEAN_MOTION_DDOT></tleParameters></data></segment></body></omm>

</ndm>
